[{"OBJECT_NAME":"STARLINK-32517","OBJECT_ID":"2024-210X","EPOCH":"2026-03-09T08:24:05.555520","MEAN_MOTION":15.2757242,"ECCENTRICITY":0.00012331,"INCLINATION":42.9999,"RA_OF_ASC_NODE":182.1168,"ARG_OF_PERICENTER":267.538,"MEAN_ANOMALY":92.5331,"EPHEMERIS_TYPE":0,"CLASSIFICATION_TYPE":"U","NORAD_CAT_ID":61980,"ELEMENT_SET_NO":999,"REV_AT_EPOCH":7477,"BSTAR":0.0012058191,"MEAN_MOTION_DOT":0.00033061,"MEAN_MOTION_DDOT":0},{"OBJECT_NAME":"TEVEL2-6","OBJECT_ID":"2025-052F","EPOCH":"2026-03-09T15:35:24.554400","MEAN_MOTION":15.30760889,"ECCENTRICITY":0.0004769,"INCLINATION":97.4016,"RA_OF_ASC_NODE":325.0381,"ARG_OF_PERICENTER":95.6604,"MEAN_ANOMALY":264.5181,"EPHEMERIS_TYPE":0,"CLASSIFICATION_TYPE":"U","NORAD_CAT_ID":63215,"ELEMENT_SET_NO":999,"REV_AT_EPOCH":5486,"BSTAR":0.00070909,"MEAN_MOTION_DOT":0.00021046,"MEAN_MOTION_DDOT":0}]
